NORAD_CAT_ID,OBJECT_NAME,OBJECT_TYPE,EPOCH,MEAN_MOTION,ECCENTRICITY,INCLINATION,RA_OF_ASC_NODE,ARG_OF_PERICENTER,MEAN_ANOMALY,BSTAR,MEAN_MOTION_DOT,MEAN_MOTION_DDOT,TLE_LINE0,TLE_LINE1,TLE_LINE2,SEMIMAJOR_AXIS,PERIOD,APOGEE,PERIGEE,DECAYED
55628.0,STARLINK-5484,PAYLOAD,2023-07-14 18:51:35,14.98340036,0.000266,70.0001,127.4951,265.8574,94.2281,-3.0384e-05,-4.56e-06,0.0,0 STARLINK-5484,1 55628U 23021A   23195.78583285 -.00000456  00000-0 -30384-4 0  9999,2 55628  70.0001 127.4951 0002660 265.8574  94.2281 14.98340036 22868,6950.162,96.106,573.876,570.178,0.0
55628.0,STARLINK-5484,PAYLOAD,2023-07-16 02:54:17,14.98321621,0.0002437,70.0006,124.1286,268.0445,92.0435,-4.0482e-05,-5.76e-06,0.0,0 STARLINK-5484,1 55628U 23021A   23197.12104121 -.00000576  00000-0 -40482-4 0  9990,2 55628  70.0006 124.1286 0002437 268.0445  92.0435 14.98321621 23061,6950.219,96.108,573.778,570.39,0.0
55628.0,STARLINK-5484,PAYLOAD,2023-07-16 18:55:38,14.9832984,0.0002642,70.0001,122.445,269.2738,90.8118,-6.0807e-05,-8.18e-06,0.0,0 STARLINK-5484,1 55628U 23021A   23197.78863794 -.00000818  00000-0 -60807-4 0  9992,2 55628  70.0001 122.4450 0002642 269.2738  90.8118 14.98329840 23162,6950.193,96.107,573.895,570.222,0.0
55628.0,STARLINK-5484,PAYLOAD,2023-07-17 23:46:02,14.98332485,0.0002689,70.0001,119.4155,270.7862,89.2989,0.00014244,1.607e-05,0.0,0 STARLINK-5484,1 55628U 23021A   23198.99030951  .00001607  00000-0  14244-3 0  9995,2 55628  70.0001 119.4155 0002689 270.7862  89.2989 14.98332485 23343,6950.185,96.107,573.919,570.181,0.0
55628.0,STARLINK-5484,PAYLOAD,2023-07-18 18:59:39,14.98330806,0.0002351,70.0014,117.3962,277.6673,82.4219,1.4685e-05,8.2e-07,0.0,0 STARLINK-5484,1 55628U 23021A   23199.79143400  .00000082  00000-0  14685-4 0  9994,2 55628  70.0014 117.3962 0002351 277.6673  82.4219 14.98330806 23461,6950.19,96.107,573.689,570.421,0.0
55628.0,STARLINK-5484,PAYLOAD,2023-07-19 19:01:41,14.9832796,0.0002738,70.0017,114.8715,273.3033,86.7813,-4.3143e-05,-6.08e-06,0.0,0 STARLINK-5484,1 55628U 23021A   23200.79283696 -.00000608  00000-0 -43143-4 0  9996,2 55628  70.0017 114.8715 0002738 273.3033  86.7813 14.98327960 23615,6950.199,96.107,573.967,570.161,0.0
55628.0,STARLINK-5484,PAYLOAD,2023-07-20 19:03:41,14.9832914,0.0002612,70.0006,112.3469,259.9031,100.1833,6.3621e-05,6.66e-06,0.0,0 STARLINK-5484,1 55628U 23021A   23201.79423277  .00000666  00000-0  63621-4 0  9993,2 55628  70.0006 112.3469 0002612 259.9031 100.1833 14.98329140 23762,6950.196,96.107,573.876,570.245,0.0
55628.0,STARLINK-5484,PAYLOAD,2023-07-24 04:46:32,14.98330282,0.0002888,69.9998,103.762,269.0683,91.0146,3.1961e-05,2.88e-06,0.0,0 STARLINK-5484,1 55628U 23021A   23205.19899176  .00000288  00000-0  31961-4 0  9998,2 55628  69.9998 103.7620 0002888 269.0683  91.0146 14.98330282 24576,6950.192,96.107,574.064,570.05,0.0
55628.0,STARLINK-5484,PAYLOAD,2023-07-25 04:48:33,14.98335902,0.0002891,69.9998,101.237,269.058,91.0248,5.0492e-05,5.1e-06,0.0,0 STARLINK-5484,1 55628U 23021A   23206.20038684  .00000510  00000-0  50492-4 0  9998,2 55628  69.9998 101.2370 0002891 269.0580  91.0248 14.98335902 24725,6950.175,96.107,574.049,570.03,0.0
55628.0,STARLINK-5484,PAYLOAD,2023-07-26 03:14:26,14.98336098,0.0002778,70.0006,98.8811,271.6495,88.4345,-7.7713e-06,-1.86e-06,0.0,0 STARLINK-5484,1 55628U 23021A   23207.13502840 -.00000186  00000-0 -77713-5 0  9998,2 55628  70.0006  98.8811 0002778 271.6495  88.4345 14.98336098 24867,6950.174,96.107,573.97,570.108,0.0
55628.0,STARLINK-5484,PAYLOAD,2023-07-26 20:51:55,14.98335068,0.000272,70.0005,97.0294,269.4222,90.6626,1.8204e-05,1.24e-06,0.0,0 STARLINK-5484,1 55628U 23021A   23207.86938687  .00000124  00000-0  18204-4 0  9999,2 55628  70.0005  97.0294 0002720 269.4222  90.6626 14.98335068 24977,6950.177,96.107,573.933,570.152,0.0
55628.0,STARLINK-5484,PAYLOAD,2023-07-27 09:40:59,14.98334499,0.0002697,70.0007,95.68,277.9302,82.1551,-8.7518e-05,-1.137e-05,0.0,0 STARLINK-5484,1 55628U 23021A   23208.40346886 -.00001137  00000-0 -87518-4 0  9995,2 55628  70.0007  95.6800 0002697 277.9302  82.1551 14.98334499 24758,6950.179,96.107,573.918,570.17,0.0
55628.0,STARLINK-5484,PAYLOAD,2023-07-27 16:05:32,14.98322549,0.0002641,70.0014,95.0081,272.3567,87.729,-1.9831e-05,-3.29e-06,0.0,0 STARLINK-5484,1 55628U 23021A   23208.67051513 -.00000329  00000-0 -19831-4 0  9999,2 55628  70.0014  95.0081 0002641 272.3567  87.7290 14.98322549 24790,6950.216,96.107,573.916,570.245,0.0
55628.0,STARLINK-5484,PAYLOAD,2023-07-27 22:30:05,14.98318591,0.0002945,69.9987,94.3338,266.726,93.3562,-0.00013259,-1.674e-05,0.0,0 STARLINK-5484,1 55628U 23021A   23208.93756091 -.00001674  00000-0 -13259-3 0  9992,2 55628  69.9987  94.3338 0002945 266.7260  93.3562 14.98318591 25133,6950.228,96.108,574.14,570.046,0.0
55628.0,STARLINK-5484,PAYLOAD,2023-07-28 00:06:13,14.98314638,0.0002856,70.0005,94.169,267.5354,92.5478,-0.00011269,-1.437e-05,0.0,0 STARLINK-5484,1 55628U 23021A   23209.00432371 -.00001437  00000-0 -11269-3 0  9999,2 55628  70.0005  94.1690 0002856 267.5354  92.5478 14.98314638 24842,6950.24,96.108,574.09,570.12,0.0
55628.0,STARLINK-5484,PAYLOAD,2023-07-29 01:44:22,14.98326138,0.0003024,69.9994,91.4745,268.2732,91.8081,-7.0065e-05,-9.29e-06,0.0,0 STARLINK-5484,1 55628U 23021A   23210.07248286 -.00000929  00000-0 -70065-4 0  9993,2 55628  69.9994  91.4745 0003024 268.2732  91.8081 14.98326138 25002,6950.205,96.107,574.172,569.968,0.0
55628.0,STARLINK-5484,PAYLOAD,2023-07-30 01:46:25,14.9821564,0.0002444,69.9995,88.9491,279.1714,80.9168,0.0021967,0.00026137,0.0,0 STARLINK-5484,1 55628U 23021A   23211.07390700  .00026137  00000-0  21967-2 0  9995,2 55628  69.9995  88.9491 0002444 279.1714  80.9168 14.98215640 25154,6950.547,96.114,574.11,570.713,0.0
55628.0,STARLINK-5484,PAYLOAD,2023-07-30 03:22:30,14.9833845,0.0003107,69.9995,88.7806,272.054,88.0263,9.6759e-05,1.062e-05,0.0,0 STARLINK-5484,1 55628U 23021A   23211.14063379  .00001062  00000-0  96759-4 0  9995,2 55628  69.9995  88.7806 0003107 272.0540  88.0263 14.98338450 25169,6950.167,96.106,574.191,569.872,0.0
55628.0,STARLINK-5484,PAYLOAD,2023-07-31 03:24:30,14.98344582,0.0003011,69.9995,86.2556,271.6073,88.4741,0.00025721,2.978e-05,0.0,0 STARLINK-5484,1 55628U 23021A   23212.14202420  .00002978  00000-0  25721-3 0  9995,2 55628  69.9995  86.2556 0003011 271.6073  88.4741 14.98344582 25319,6950.148,96.106,574.105,569.92,0.0
55628.0,STARLINK-5484,PAYLOAD,2023-07-31 17:49:44,14.98336512,0.0002932,69.9999,84.7419,267.4897,92.5926,-2.8661e-05,-4.35e-06,0.0,0 STARLINK-5484,1 55628U 23021A   23212.74287392 -.00000435  00000-0 -28661-4 0  9997,2 55628  69.9999  84.7419 0002932 267.4897  92.5926 14.98336512 25407,6950.173,96.107,574.076,570.0,0.0
55628.0,STARLINK-5484,PAYLOAD,2023-08-01 17:51:44,14.98336781,0.0002857,69.9999,82.2163,268.1605,91.9227,-0.00010378,-1.331e-05,0.0,0 STARLINK-5484,1 55628U 23021A   23213.74427081 -.00001331  00000-0 -10378-3 0  9990,2 55628  69.9999  82.2163 0002857 268.1605  91.9227 14.98336781 25558,6950.172,96.107,574.023,570.051,0.0
55628.0,STARLINK-5484,PAYLOAD,2023-08-02 17:53:45,14.98319297,0.0002937,70.0001,79.6914,265.7343,94.348,0.00027662,3.208e-05,0.0,0 STARLINK-5484,1 55628U 23021A   23214.74566699  .00003208  00000-0  27662-3 0  9997,2 55628  70.0001  79.6914 0002937 265.7343  94.3480 14.98319297 25708,6950.226,96.108,574.132,570.05,0.0
55628.0,STARLINK-5484,PAYLOAD,2023-08-03 00:18:17,14.98334702,0.0002864,70.0,79.0182,266.0564,94.0268,5.6847e-05,5.85e-06,0.0,0 STARLINK-5484,1 55628U 23021A   23215.01270376  .00000585  00000-0  56847-4 0  9995,2 55628  70.0000  79.0182 0002864 266.0564  94.0268 14.98334702 25749,6950.178,96.107,574.034,570.053,0.0
55628.0,STARLINK-5484,PAYLOAD,2023-08-03 17:55:46,14.98325846,0.0003092,69.9999,77.1668,268.3427,91.7378,1.4564e-05,8.1e-07,0.0,0 STARLINK-5484,1 55628U 23021A   23215.74707024  .00000081  00000-0  14564-4 0  9991,2 55628  69.9999  77.1668 0003092 268.3427  91.7378 14.98325846 25855,6950.206,96.107,574.22,569.922,0.0
55628.0,STARLINK-5484,PAYLOAD,2023-08-04 17:57:47,14.98332905,0.0002999,69.9998,74.6413,269.1374,90.9442,3.6944e-05,3.48e-06,0.0,0 STARLINK-5484,1 55628U 23021A   23216.74846567  .00000348  00000-0  36944-4 0  9990,2 55628  69.9998  74.6413 0002999 269.1374  90.9442 14.98332905 26004,6950.184,96.107,574.133,569.965,0.0
55628.0,STARLINK-5484,PAYLOAD,2023-08-05 17:59:48,14.98330067,0.0003044,69.9998,72.1161,268.2078,91.8732,7.7439e-05,8.31e-06,0.0,0 STARLINK-5484,1 55628U 23021A   23217.74986488  .00000831  00000-0  77439-4 0  9999,2 55628  69.9998  72.1161 0003044 268.2078  91.8732 14.98330067 26155,6950.193,96.107,574.173,569.942,0.0
55628.0,STARLINK-5484,PAYLOAD,2023-08-06 18:01:50,14.98322984,0.0002752,70.0006,69.5928,259.205,100.88,-8.2855e-05,-1.081e-05,0.0,0 STARLINK-5484,1 55628U 23021A   23218.75127384 -.00001081  00000-0 -82855-4 0  9991,2 55628  70.0006  69.5928 0002752 259.2050 100.8800 14.98322984 26307,6950.215,96.107,573.992,570.167,0.0
55628.0,STARLINK-5484,PAYLOAD,2023-08-07 18:03:50,14.98328676,0.0003047,70.0,67.0661,270.3259,89.7551,-3.1953e-05,-4.74e-06,0.0,0 STARLINK-5484,1 55628U 23021A   23219.75267326 -.00000474  00000-0 -31953-4 0  9991,2 55628  70.0000  67.0661 0003047 270.3259  89.7551 14.98328676 26459,6950.197,96.107,574.18,569.944,0.0
55628.0,STARLINK-5484,PAYLOAD,2023-08-08 06:52:54,14.98342248,0.0003259,69.9997,65.7196,249.1015,110.9795,-0.00013164,-1.664e-05,0.0,0 STARLINK-5484,1 55628U 23021A   23220.28674497 -.00001664  00000-0 -13164-3 0  9997,2 55628  69.9997  65.7196 0003259 249.1015 110.9795 14.98342248 26535,6950.155,96.106,574.285,569.755,0.0
55628.0,STARLINK-5484,PAYLOAD,2023-08-08 13:17:27,14.9832783,0.0003242,69.9995,65.046,269.8587,90.2201,0.00018508,2.116e-05,0.0,0 STARLINK-5484,1 55628U 23021A   23220.55378828  .00002116  00000-0  18508-3 0  9994,2 55628  69.9995  65.0460 0003242 269.8587  90.2201 14.98327830 26571,6950.2,96.107,574.318,569.811,0.0
